{
    "links": {
        "self": "http://www.neowsapp.com/rest/v1/neo/3986829?api_key=iIulBulltgU6a56xZRHN4H3l9WmuAYTsLGpBGhQ2"
    },
    "id": "3986829",
    "neo_reference_id": "3986829",
    "name": "(2020 BQ2)",
    "designation": "2020 BQ2",
    "nasa_jpl_url": "http://ssd.jpl.nasa.gov/sbdb.cgi?sstr=3986829",
    "absolute_magnitude_h": 25.303,
    "estimated_diameter": {
        "kilometers": {
            "estimated_diameter_min": 0.0231182511,
            "estimated_diameter_max": 0.051693981
        },
        "meters": {
            "estimated_diameter_min": 23.1182511039,
            "estimated_diameter_max": 51.6939809893
        },
        "miles": {
            "estimated_diameter_min": 0.0143650108,
            "estimated_diameter_max": 0.0321211407
        },
        "feet": {
            "estimated_diameter_min": 75.8472829518,
            "estimated_diameter_max": 169.599680589
        }
    },
    "is_potentially_hazardous_asteroid": false,
    "close_approach_data": [
        {
            "close_approach_date": "1901-12-21",
            "close_approach_date_full": "1901-Dec-21 06:06",
            "epoch_date_close_approach": -2146845240000,
            "relative_velocity": {
                "kilometers_per_second": "7.7117126438",
                "kilometers_per_hour": "27762.1655176988",
                "miles_per_hour": "17250.3300129279"
            },
            "miss_distance": {
                "astronomical": "1.2428948583",
                "lunar": "483.4860998787",
                "kilometers": "185934423.435631821",
                "miles": "115534293.3265322898"
            },
            "orbiting_body": "Juptr"
        },
        {
            "close_approach_date": "2008-12-08",
            "close_approach_date_full": "2008-Dec-08 04:44",
            "epoch_date_close_approach": 1228711440000,
            "relative_velocity": {
                "kilometers_per_second": "7.1732739465",
                "kilometers_per_hour": "25823.7862073286",
                "miles_per_hour": "16045.8964908815"
            },
            "miss_distance": {
                "astronomical": "1.1738123893",
                "lunar": "456.6130194377",
                "kilometers": "175599833.218890791",
                "miles": "109112676.7401672758"
            },
            "orbiting_body": "Juptr"
        },
        {
            "close_approach_date": "2020-01-21",
            "close_approach_date_full": "2020-Jan-21 04:12",
            "epoch_date_close_approach": 1579579920000,
            "relative_velocity": {
                "kilometers_per_second": "8.7232300343",
                "kilometers_per_hour": "31403.6281233058",
                "miles_per_hour": "19512.9932636174"
            },
            "miss_distance": {
                "astronomical": "0.0489135711",
                "lunar": "19.0273791579",
                "kilometers": "7317366.050653557",
                "miles": "4546800.4259388066"
            },
            "orbiting_body": "Earth"
        },
        {
            "close_approach_date": "2091-11-08",
            "close_approach_date_full": "2091-Nov-08 20:31",
            "epoch_date_close_approach": 3845392260000,
            "relative_velocity": {
                "kilometers_per_second": "8.3498259353",
                "kilometers_per_hour": "30059.3733672086",
                "miles_per_hour": "18677.7256347525"
            },
            "miss_distance": {
                "astronomical": "1.3805329127",
                "lunar": "537.0273030403",
                "kilometers": "206524783.204815949",
                "miles": "128328549.6095561362"
            },
            "orbiting_body": "Juptr"
        }
    ],
    "orbital_data": {
        "orbit_id": "8",
        "orbit_determination_date": "2020-09-11 07:46:41",
        "first_observation_date": "2019-12-24",
        "last_observation_date": "2020-01-29",
        "data_arc_in_days": 36,
        "observations_used": 66,
        "orbit_uncertainty": "7",
        "minimum_orbit_intersection": ".0488832",
        "jupiter_tisserand_invariant": "2.979",
        "epoch_osculation": "2459000.5",
        "eccentricity": ".6325896393543301",
        "semi_major_axis": "2.807687643664289",
        "inclination": "8.318647519588266",
        "ascending_node_longitude": "122.1391133276692",
        "orbital_period": "1718.389510357151",
        "perihelion_distance": "1.031573529739088",
        "perihelion_argument": "353.8231877709459",
        "aphelion_distance": "4.583801757589492",
        "perihelion_time": "2458866.230551893003",
        "mean_anomaly": "28.12924603367275",
        "mean_motion": ".2094984855471897",
        "equinox": "J2000",
        "orbit_class": {
            "orbit_class_type": "AMO",
            "orbit_class_description": "Near-Earth asteroid orbits similar to that of 1221 Amor",
            "orbit_class_range": "1.017 AU < q (perihelion) < 1.3 AU"
        }
    },
    "is_sentry_object": false
}